TRANSIT 16 [?]          
1 02807U 67048A   22239.45358763  .00000060  00000+0  77993-4 0  9995
2 02807  89.6558  34.0228 0020099   1.0897  52.6872 13.50321902720357
TRANSIT 17 [?]          
1 02965U 67092A   22239.20823940  .00000093  00000+0  12073-3 0  9999
2 02965  89.2371 117.9993 0048964 128.4126 353.5004 13.53033839708203
TRANSIT 18 [?]          
1 03133U 68012A   22239.50338963  .00000052  00000+0  63664-4 0  9997
2 03133  90.0024 271.6279 0076738  56.5061  58.6295 13.51159731406680
NNSS 19 [?]             
1 04507U 70067A   22239.44770506  .00000076  00000+0  92698-4 0  9997
2 04507  89.9205 238.7866 0172390 177.8499 182.3433 13.50835900559746
NNSS O-20 [?]           
1 06909U 73081A   22239.14617014  .00000104  00000+0  94726-4 0  9991
2 06909  89.8156 276.1179 0158633  85.4116 276.5146 13.70690753638691
TRANSAT [?]             
1 10457U 77106A   22239.24185587  .00000070  00000+0  95434-4 0  9991
2 10457  89.6797 120.2514 0027004  64.4484  49.7275 13.48684929205200
NOVA I [?]              
1 12458U 81044A   22239.17613878  .00000058  00000+0  11679-3 0  9995
2 12458  89.8842 106.9161 0014215 176.0250 297.9004 13.23069719992696
NOVA 3 [?]              
1 15362U 84110A   22239.50873977  .00000053  00000+0  10572-3 0  9990
2 15362  90.0944  67.6411 0033262  48.7600   3.7883 13.22837707827906
OSCAR 30 [?]            
1 15935U 85066A   22239.48644362  .00000058  00000+0  91500-4 0  9994
2 15935  90.1727  79.1470 0167222 237.7997 183.0520 13.35761754803881
OSCAR 24 [?]            
1 15936U 85066B   22239.49336500  .00000064  00000+0  10249-3 0  9995
2 15936  90.1686  71.0943 0167666 243.5495 173.1445 13.35622189805800
POLAR BEAR [?]          
1 17070U 86088A   22239.46665829  .00000060  00000+0  50465-4 0  9998
2 17070  89.5622 234.3460 0040227 146.7416 332.9685 13.74875841794436
OSCAR 27 [?]            
1 18361U 87080A   22239.43616521  .00000049  00000+0  66405-4 0  9995
2 18361  90.3316  36.5768 0106165  70.7073 290.5520 13.44570522713851
OSCAR 29 [?]            
1 18362U 87080B   22239.50558470  .00000081  00000+0  11964-3 0  9997
2 18362  90.3327  36.9132 0107992  90.5722 335.8695 13.44158774713445
OSCAR 23 [?]            
1 19070U 88033A   22239.32375639  .00000062  00000+0  11271-3 0  9997
2 19070  90.3362 339.0390 0188022 286.7692 132.2097 13.27526409662850
OSCAR 32 [?]            
1 19071U 88033B   22239.30573326  .00000050  00000+0  89473-4 0  9996
2 19071  90.3364 339.1254 0186291 274.5736 137.6158 13.27706078662953
NOVA 11 [?]             
1 19223U 88052A   22239.49940062  .00000039  00000+0  71286-4 0  9991
2 19223  89.9698  80.6948 0032452  89.6706 328.5328 13.22749146650400
OSCAR 25 [?]            
1 19419U 88074A   22239.46285125  .00000028  00000+0  30179-4 0  9995
2 19419  90.0079  17.9162 0098214  78.8581 348.1787 13.42300757664969
OSCAR 31 [?]            
1 19420U 88074B   22239.47699016  .00000022  00000+0  20555-4 0  9997
2 19420  90.0089  18.0995 0096323  73.0733 356.5443 13.42311357665076
